ONEWEB-0555             
1 56057U 23043M   25269.04182093  .00000062  00000+0  12796-3 0  9991
2 56057  87.8969 281.4073 0002409  87.3459 272.7947 13.16592814124205
ONEWEB-0557             
1 56058U 23043N   25269.28407183 -.00000021  00000+0 -87359-4 0  9993
2 56058  87.8959 281.3760 0002622  63.0787 297.0611 13.16595069124235
ONEWEB-0558             
1 56059U 23043P   25269.11080774  .00000112  00000+0  23991-3 0  9999
2 56059  87.9182 296.6846 0001727 106.9512 253.1811 13.21825200123353
ONEWEB-0559             
1 56060U 23043Q   25268.49419877  .00000032  00000+0  44995-4 0  9990
2 56060  87.9185 296.8004 0001517  96.9591 263.1716 13.21824652123285
ONEWEB-0566             
1 56061U 23043R   25269.01776340  .00000066  00000+0  12804-3 0  9991
2 56061  87.9183 296.6936 0001667 101.4251 258.7071 13.21825092123336
ONEWEB-0568             
1 56062U 23043S   25269.30148890 -.00000094  00000+0 -28034-3 0  9992
2 56062  87.8970 281.3537 0002182  89.6138 270.5243 13.16594906124258
ONEWEB-0574             
1 56063U 23043T   25269.08715225  .00000111  00000+0  23704-3 0  9997
2 56063  87.9184 296.6682 0001885  87.5991 272.5358 13.21827201123385
ONEWEB-0575             
1 56064U 23043U   25269.06715123 -.00000046  00000+0 -15406-3 0  9992
2 56064  87.8967 281.4043 0002092  79.5409 280.5958 13.16595877124216
ONEWEB-0576             
1 56065U 23043V   25269.04815880  .00000041  00000+0  74098-4 0  9998
2 56065  87.8977 281.4039 0002079  88.5888 271.5481 13.16595622124207
ONEWEB-0577             
1 56066U 23043W   25269.28249213 -.00000066  00000+0 -20700-3 0  9995
2 56066  87.8974 281.3581 0002127  72.7419 287.3944 13.16595104124265
ONEWEB-0578             
1 56067U 23043X   25269.07453160  .00000051  00000+0  92256-4 0  9999
2 56067  87.9183 296.6802 0002125  92.8131 267.3247 13.21827145123347
ONEWEB-0579             
1 56068U 23043Y   25269.14077334  .00000019  00000+0  14001-4 0  9999
2 56068  87.9185 296.6538 0001604  94.3449 265.7868 13.21825985123369
ONEWEB-0581             
1 56069U 23043Z   25269.06082193 -.00000039  00000+0 -13612-3 0  9990
2 56069  87.8964 281.4201 0001805  77.0396 283.0937 13.16592828124200
ONEWEB-0609             
1 56070U 23043AA  25269.18877161  .00000199  00000+0  49544-3 0  9990
2 56070  87.9008 311.9012 0001838  98.1481 261.9858 13.15550710121720
ONEWEB-0613             
1 56071U 23043AB  25269.18402086  .00000159  00000+0  38798-3 0  9996
2 56071  87.9008 311.9161 0001599 102.4331 257.6978 13.15551046121721
ONEWEB-0630             
1 56072U 23043AC  25269.10319840  .00000195  00000+0  48259-3 0  9997
2 56072  87.9006 311.9049 0001594 102.6147 257.5162 13.15550147121700
ONEWEB-0632             
1 56073U 23043AD  25269.02239186  .00000076  00000+0  16779-3 0  9993
2 56073  87.9001 311.9409 0001746  90.1313 270.0018 13.15546080121690
ONEWEB-0633             
1 56074U 23043AE  25269.09209814 -.00000240  00000+0 -67221-3 0  9999
2 56074  87.9001 311.8905 0001678 109.6491 250.4821 13.15548005121680
ONEWEB-0634             
1 56075U 23043AF  25269.15389577 -.00000295  00000+0 -81879-3 0  9997
2 56075  87.9013 311.9229 0002079 103.4196 256.7167 13.15547591121685
ONEWEB-0635             
1 56076U 23043AG  25269.14916434 -.00000085  00000+0 -25888-3 0  9990
2 56076  87.8995 311.8842 0001802  86.5588 273.5749 13.15548509121710
ONEWEB-0636             
1 56077U 23043AH  25269.14122165 -.00000065  00000+0 -20626-3 0  9994
2 56077  87.9000 311.9026 0001797  89.4790 270.6546 13.15550123121699
ONEWEB-0637             
1 56078U 23043AJ  25269.13490762  .00000010  00000+0 -84117-5 0  9991
2 56078  87.9004 311.9173 0002126  89.7675 270.3699 13.15549702121719
ONEWEB-0647             
1 56079U 23043AK  25269.13012939  .00000066  00000+0  14020-3 0  9992
2 56079  87.9007 311.9313 0001687  94.4288 265.7035 13.15550447121702
ONEWEB-0651             
1 56080U 23043AL  25269.20145850  .00000136  00000+0  32795-3 0  9998
2 56080  87.9007 311.9095 0001929  87.0280 273.1071 13.15548573122914
ONEWEB-0718             
1 56081U 23043AM  25269.19669131  .00000123  00000+0  29161-3 0  9999
2 56081  87.9007 311.8912 0002330 105.5642 254.5745 13.15550036121723
ONEWEB-0561             
1 56710U 23068A   25269.10960643  .00000161  00000+0  36500-3 0  9995
2 56710  87.9246 327.1112 0001595  84.7490 275.3825 13.20771437114649
ONEWEB-0668             
1 56711U 23068B   25269.06321969 -.00000009  00000+0 -56954-4 0  9992
2 56711  87.8977 281.3950 0002382  95.8140 264.3263 13.16593363117025
ONEWEB-0676             
1 56712U 23068C   25269.19539764  .00000055  00000+0  11050-3 0  9997
2 56712  87.8970 281.3863 0001747  81.4222 278.7107 13.16592693116961
ONEWEB-0677             
1 56713U 23068D   25268.71976727 -.00000025  00000+0 -92637-4 0  9999
2 56713  87.9253 327.1658 0002029  90.3301 269.8065 13.20771423114898
ONEWEB-0678             
1 56714U 23068E   25268.63259061  .00000017  00000+0  11914-4 0  9994
2 56714  87.9009 311.9768 0001531  99.1596 260.9708 13.15550135114504
ONEWEB-0679             
1 56715U 23068F   25269.01254148  .00000089  00000+0  19979-3 0  9996
2 56715  87.8963 281.4153 0002291  82.8891 277.2500 13.16595349116963
ONEWEB-0680             
1 56716U 23068G   25269.06822151 -.00000045  00000+0 -14014-3 0  9996
2 56716  87.9184 296.6671 0002514  94.5957 265.5464 13.21826002116209
ONEWEB-0681             
1 56717U 23068H   25269.12184671  .00000037  00000+0  58206-4 0  9993
2 56717  87.9183 296.6738 0001974  60.3740 299.7590 13.21825355116202
ONEWEB-0682             
1 56718U 23068J   25269.19114722  .00000156  00000+0  38107-3 0  9990
2 56718  87.9001 311.8846 0002361  94.2735 265.8665 13.15548846114747
ONEWEB-0683             
1 56719U 23068K   25269.06041466  .00000009  00000+0 -91407-5 0  9993
2 56719  87.9008 311.8895 0002159  97.1689 262.9687 13.15550583114691
ONEWEB-0684             
1 56720U 23068L   25269.06833142 -.00000073  00000+0 -22802-3 0  9998
2 56720  87.8995 311.8856 0001435 144.6798 215.4428 13.15546564114521
ONEWEB-0686             
1 56721U 23068M   25269.07823222  .00000004  00000+0 -22027-4 0  9991
2 56721  87.8961 281.4311 0002027  99.4847 260.6513 13.16592729116965
ONEWEB-0694             
1 56722U 23068N   25269.12099118  .00000022  00000+0  23134-4 0  9996
2 56722  87.8982 281.3546 0002318  91.9164 268.2232 13.16594154117024
ONEWEB-0696             
1 56723U 23068P   25268.64527292  .00000134  00000+0  32186-3 0  9992
2 56723  87.9003 312.0249 0001544  98.6668 261.4637 13.15547200114586
ONEWEB-0703             
1 56724U 23068Q   25269.11112299  .00000184  00000+0  45344-3 0  9998
2 56724  87.8999 311.9160 0000867  73.8755 286.2471 13.15546959114535
ONEWEB-0721             
1 56725U 23068R   25268.78460793  .00000088  00000+0  17557-3 0  9994
2 56725  86.6873 169.8168 0001716  72.9571 287.1750 13.22445967122996
ONEWEB-0015             
1 61594U 24188A   25269.17003216 -.00000353  00000+0 -10322-2 0  9994
2 61594  87.8791  73.6919 0001978  74.6452 285.4895 13.11414438 49852
ONEWEB-0687             
1 61595U 24188B   25268.89697747  .00000024  00000+0  28695-4 0  9998
2 61595  87.9057  58.4714 0002271  91.0732 269.0660 13.17647436 51093
ONEWEB-0688             
1 61596U 24188C   25268.84972433  .00000821  00000+0  20812-2 0  9998
2 61596  87.9068  58.4813 0002531  69.4998 290.6405 13.17651104 51081
ONEWEB-0689             
1 61597U 24188D   25269.20394948  .00000253  00000+0  67766-3 0  9998
2 61597  87.8763  73.6349 0001973  94.9342 265.2011 13.11418845 49851
ONEWEB-0690             
1 61598U 24188E   25269.21414199  .00000561  00000+0  15473-2 0  9990
2 61598  87.8806  73.6198 0000878  84.1748 275.9480 13.11417324 50037
ONEWEB-0691             
1 61599U 24188F   25269.20903827  .00000473  00000+0  12999-2 0  9993
2 61599  87.8728  73.5669 0001807  77.1621 282.9708 13.11416420 49886
ONEWEB-0692             
1 61600U 24188G   25269.00050086  .00000329  00000+0  89127-3 0  9992
2 61600  87.8781  73.7240 0001933 121.1206 239.0111 13.11411028 49840
ONEWEB-0693             
1 61601U 24188H   25268.93746855  .00000051  00000+0  99226-4 0  9994
2 61601  87.9059  58.4821 0000996  70.3203 289.8036 13.17649643 51085
ONEWEB-0695             
1 61602U 24188J   25269.20564047  .00000373  00000+0  10169-2 0  9991
2 61602  87.8788  73.6702 0002053 103.4213 256.7144 13.11419863 49865
ONEWEB-0697             
1 61603U 24188K   25269.00896923 -.00000029  00000+0 -11756-3 0  9995
2 61603  87.8781  73.7005 0001833 119.1064 241.0248 13.11413583 49820
ONEWEB-0698             
1 61604U 24188L   25269.21582560  .00000605  00000+0  16716-2 0  9996
2 61604  87.8786  73.6737 0001148 132.7298 227.3927 13.11416298 49878
ONEWEB-0699             
1 61605U 24188M   25269.24765516  .00000372  00000+0  10280-2 0  9995
2 61605  87.8752  88.8836 0001640 111.6923 248.4379 13.10375458 48749
ONEWEB-0700             
1 61606U 24188N   25269.24931698  .00000573  00000+0  16048-2 0  9993
2 61606  87.8744  88.7665 0002183 103.3315 256.8056 13.10376041 48739
ONEWEB-0701             
1 61607U 24188P   25268.96047967  .00000582  00000+0  16303-2 0  9993
2 61607  87.8737  88.9447 0001736 118.1962 241.9340 13.10371322 48702
ONEWEB-0702             
1 61608U 24188Q   25268.95641321 -.00000449  00000+0 -13032-2 0  9997
2 61608  87.8728  73.6464 0002148 117.8217 242.3129 13.11416856 49850
ONEWEB-0704             
1 61609U 24188R   25268.94886292  .00000633  00000+0  17779-2 0  9990
2 61609  87.8763  88.9006 0002211 113.3151 246.8209 13.10374383 48685
ONEWEB-0705             
1 61610U 24188S   25268.87747172  .00000130  00000+0  33628-3 0  9991
2 61610  87.8748  88.9466 0002825  94.4559 265.6891 13.10373972 40841
ONEWEB-0706             
1 61611U 24188T   25269.24432650  .00000246  00000+0  66948-3 0  9995
2 61611  87.8745  88.9001 0002137 102.1454 257.9913 13.10375918 48817
